{
  "links" : {
    "next" : "https://api.nasa.gov/neo/rest/v1/feed?start_date=2014-08-23&end_date=2014-08-23&detailed=true&api_key=t0TVs3DtDT2H8Oy2Zy8m2eVrNsAVKAexjcZXUckd",
    "prev" : "https://api.nasa.gov/neo/rest/v1/feed?start_date=2014-08-21&end_date=2014-08-21&detailed=true&api_key=t0TVs3DtDT2H8Oy2Zy8m2eVrNsAVKAexjcZXUckd",
    "self" : "https://api.nasa.gov/neo/rest/v1/feed?start_date=2014-08-22&end_date=2014-08-22&detailed=true&api_key=t0TVs3DtDT2H8Oy2Zy8m2eVrNsAVKAexjcZXUckd"
  },
  "element_count" : 7,
  "near_earth_objects" : {
    "2014-08-22" : [ {
      "links" : {
        "self" : "https://api.nasa.gov/neo/rest/v1/neo/3328632?api_key=t0TVs3DtDT2H8Oy2Zy8m2eVrNsAVKAexjcZXUckd"
      },
      "neo_reference_id" : "3328632",
      "name" : "(2006 FK)",
      "nasa_jpl_url" : "http://ssd.jpl.nasa.gov/sbdb.cgi?sstr=3328632",
      "absolute_magnitude_h" : 21.2,
      "estimated_diameter" : {
        "kilometers" : {
          "estimated_diameter_min" : 0.1529519353,
          "estimated_diameter_max" : 0.3420109247
        },
        "meters" : {
          "estimated_diameter_min" : 152.9519353442,
          "estimated_diameter_max" : 342.0109247198
        },
        "miles" : {
          "estimated_diameter_min" : 0.095039897,
          "estimated_diameter_max" : 0.2125156703
        },
        "feet" : {
          "estimated_diameter_min" : 501.8108275547,
          "estimated_diameter_max" : 1122.0831222578
        }
      },
      "is_potentially_hazardous_asteroid" : false,
      "close_approach_data" : [ {
        "close_approach_date" : "2014-08-22",
        "epoch_date_close_approach" : 1408690800000,
        "relative_velocity" : {
          "kilometers_per_second" : "13.7308000934",
          "kilometers_per_hour" : "49430.880336092",
          "miles_per_hour" : "30714.4267288345"
        },
        "miss_distance" : {
          "astronomical" : "0.3763400774",
          "lunar" : "146.3963012695",
          "kilometers" : "56299676",
          "miles" : "34982996"
        },
        "orbiting_body" : "Earth"
      } ],
      "orbital_data" : {
        "orbit_id" : "22",
        "orbit_determination_date" : "2017-04-06 09:08:55",
        "orbit_uncertainty" : "0",
        "minimum_orbit_intersection" : ".194349",
        "jupiter_tisserand_invariant" : "6.406",
        "epoch_osculation" : "2458000.5",
        "eccentricity" : ".3433805045457145",
        "semi_major_axis" : ".9224692804595577",
        "inclination" : "14.61464913297356",
        "ascending_node_longitude" : "15.17350421028166",
        "orbital_period" : "323.6132503810625",
        "perihelion_distance" : ".6057113135074325",
        "perihelion_argument" : "3.199018146492104",
        "aphelion_distance" : "1.239227247411683",
        "perihelion_time" : "2457887.176493648210",
        "mean_anomaly" : "126.0654878581323",
        "mean_motion" : "1.112438998020295",
        "equinox" : "J2000"
      }
    }, {
      "links" : {
        "self" : "https://api.nasa.gov/neo/rest/v1/neo/3601574?api_key=t0TVs3DtDT2H8Oy2Zy8m2eVrNsAVKAexjcZXUckd"
      },
      "neo_reference_id" : "3601574",
      "name" : "(2012 FK15)",
      "nasa_jpl_url" : "http://ssd.jpl.nasa.gov/sbdb.cgi?sstr=3601574",
      "absolute_magnitude_h" : 26.5,
      "estimated_diameter" : {
        "kilometers" : {
          "estimated_diameter_min" : 0.0133215567,
          "estimated_diameter_max" : 0.0297879063
        },
        "meters" : {
          "estimated_diameter_min" : 13.3215566698,
          "estimated_diameter_max" : 29.7879062798
        },
        "miles" : {
          "estimated_diameter_min" : 0.008277629,
          "estimated_diameter_max" : 0.0185093411
        },
        "feet" : {
          "estimated_diameter_min" : 43.7058959846,
          "estimated_diameter_max" : 97.7293544391
        }
      },
      "is_potentially_hazardous_asteroid" : false,
      "close_approach_data" : [ {
        "close_approach_date" : "2014-08-22",
        "epoch_date_close_approach" : 1408690800000,
        "relative_velocity" : {
          "kilometers_per_second" : "16.2010284459",
          "kilometers_per_hour" : "58323.702405379",
          "miles_per_hour" : "36240.0805307201"
        },
        "miss_distance" : {
          "astronomical" : "0.4011958122",
          "lunar" : "156.0651702881",
          "kilometers" : "60018040",
          "miles" : "37293480"
        },
        "orbiting_body" : "Earth"
      } ],
      "orbital_data" : {
        "orbit_id" : "4",
        "orbit_determination_date" : "2017-04-06 08:50:25",
        "orbit_uncertainty" : "8",
        "minimum_orbit_intersection" : ".0487075",
        "jupiter_tisserand_invariant" : "6.043",
        "epoch_osculation" : "2456009.5",
        "eccentricity" : ".06650745782869934",
        "semi_major_axis" : ".9911526984909586",
        "inclination" : "24.34128958115243",
        "ascending_node_longitude" : ".5942981672984921",
        "orbital_period" : "360.4203287229523",
        "perihelion_distance" : ".9252336521942696",
        "perihelion_argument" : "327.3579234806223",
        "aphelion_distance" : "1.057071744787647",
        "perihelion_time" : "2456150.985493658813",
        "mean_anomaly" : "218.6795092894852",
        "mean_motion" : ".9988337818667398",
        "equinox" : "J2000"
      }
    }, {
      "links" : {
        "self" : "https://api.nasa.gov/neo/rest/v1/neo/3653472?api_key=t0TVs3DtDT2H8Oy2Zy8m2eVrNsAVKAexjcZXUckd"
      },
      "neo_reference_id" : "3653472",
      "name" : "(2013 VQ4)",
      "nasa_jpl_url" : "http://ssd.jpl.nasa.gov/sbdb.cgi?sstr=3653472",
      "absolute_magnitude_h" : 21.8,
      "estimated_diameter" : {
        "kilometers" : {
          "estimated_diameter_min" : 0.1160259082,
          "estimated_diameter_max" : 0.2594418179
        },
        "meters" : {
          "estimated_diameter_min" : 116.0259082094,
          "estimated_diameter_max" : 259.4418179074
        },
        "miles" : {
          "estimated_diameter_min" : 0.0720951346,
          "estimated_diameter_max" : 0.1612096218
        },
        "feet" : {
          "estimated_diameter_min" : 380.6624406898,
          "estimated_diameter_max" : 851.1870938635
        }
      },
      "is_potentially_hazardous_asteroid" : false,
      "close_approach_data" : [ {
        "close_approach_date" : "2014-08-22",
        "epoch_date_close_approach" : 1408690800000,
        "relative_velocity" : {
          "kilometers_per_second" : "8.1034306326",
          "kilometers_per_hour" : "29172.3502775171",
          "miles_per_hour" : "18126.5639821605"
        },
        "miss_distance" : {
          "astronomical" : "0.3942219769",
          "lunar" : "153.352355957",
          "kilometers" : "58974772",
          "miles" : "36645224"
        },
        "orbiting_body" : "Earth"
      } ],
      "orbital_data" : {
        "orbit_id" : "24",
        "orbit_determination_date" : "2017-04-06 08:43:49",
        "orbit_uncertainty" : "4",
        "minimum_orbit_intersection" : ".192926",
        "jupiter_tisserand_invariant" : "5.526",
        "epoch_osculation" : "2458000.5",
        "eccentricity" : ".2896555031228469",
        "semi_major_axis" : "1.11545226710819",
        "inclination" : "13.55560441165318",
        "ascending_node_longitude" : "207.6940492362288",
        "orbital_period" : "430.3035337623271",
        "perihelion_distance" : ".7923553794694467",
        "perihelion_argument" : "343.7485196100598",
        "aphelion_distance" : "1.438549154746933",
        "perihelion_time" : "2458043.105581280622",
        "mean_anomaly" : "324.3553722951861",
        "mean_motion" : ".8366187394566961",
        "equinox" : "J2000"
      }
    } ]
  }
}